{
    "links": {
        "self": "http://www.neowsapp.com/rest/v1/neo/3829423?api_key=iIulBulltgU6a56xZRHN4H3l9WmuAYTsLGpBGhQ2"
    },
    "id": "3829423",
    "neo_reference_id": "3829423",
    "name": "(2018 RQ5)",
    "designation": "2018 RQ5",
    "nasa_jpl_url": "http://ssd.jpl.nasa.gov/sbdb.cgi?sstr=3829423",
    "absolute_magnitude_h": 24.9,
    "estimated_diameter": {
        "kilometers": {
            "estimated_diameter_min": 0.0278326768,
            "estimated_diameter_max": 0.0622357573
        },
        "meters": {
            "estimated_diameter_min": 27.8326768072,
            "estimated_diameter_max": 62.2357573367
        },
        "miles": {
            "estimated_diameter_min": 0.0172944182,
            "estimated_diameter_max": 0.0386714948
        },
        "feet": {
            "estimated_diameter_min": 91.3145593761,
            "estimated_diameter_max": 204.1855621004
        }
    },
    "is_potentially_hazardous_asteroid": false,
    "close_approach_data": [
        {
            "close_approach_date": "2018-09-10",
            "close_approach_date_full": "2018-Sep-10 06:53",
            "epoch_date_close_approach": 1536562380000,
            "relative_velocity": {
                "kilometers_per_second": "10.3667755048",
                "kilometers_per_hour": "37320.3918172843",
                "miles_per_hour": "23189.4401266898"
            },
            "miss_distance": {
                "astronomical": "0.0384414143",
                "lunar": "14.9537101627",
                "kilometers": "5750753.699067541",
                "miles": "3573352.6500364258"
            },
            "orbiting_body": "Earth"
        }
    ],
    "orbital_data": {
        "orbit_id": "7",
        "orbit_determination_date": "2018-10-15 07:11:23",
        "first_observation_date": "2018-09-13",
        "last_observation_date": "2018-09-28",
        "data_arc_in_days": 15,
        "observations_used": 78,
        "orbit_uncertainty": "7",
        "minimum_orbit_intersection": ".0342359",
        "jupiter_tisserand_invariant": "3.478",
        "epoch_osculation": "2459000.5",
        "eccentricity": ".5401040227012487",
        "semi_major_axis": "2.162790697668069",
        "inclination": "8.777116798766501",
        "ascending_node_longitude": "354.1154096324645",
        "orbital_period": "1161.770023236642",
        "perihelion_distance": ".9946587415967046",
        "perihelion_argument": "325.0348547238028",
        "aphelion_distance": "3.330922653739433",
        "perihelion_time": "2459511.063736875027",
        "mean_anomaly": "201.790594008492",
        "mean_motion": ".3098719994487852",
        "equinox": "J2000",
        "orbit_class": {
            "orbit_class_type": "APO",
            "orbit_class_description": "Near-Earth asteroid orbits which cross the Earth’s orbit similar to that of 1862 Apollo",
            "orbit_class_range": "a (semi-major axis) > 1.0 AU; q (perihelion) < 1.017 AU"
        }
    },
    "is_sentry_object": false
}